sat21279
1 21279U 75052Q   20046.87685350 -.00000038  00000-0  64188-5 0  9998
2 21279  99.5077 272.8350 0055571 182.1785 190.0217 13.57004859425241
